{
    "links": {
        "self": "http://www.neowsapp.com/rest/v1/neo/54054651?api_key=iIulBulltgU6a56xZRHN4H3l9WmuAYTsLGpBGhQ2"
    },
    "id": "54054651",
    "neo_reference_id": "54054651",
    "name": "(2020 SB5)",
    "designation": "2020 SB5",
    "nasa_jpl_url": "http://ssd.jpl.nasa.gov/sbdb.cgi?sstr=54054651",
    "absolute_magnitude_h": 24.717,
    "estimated_diameter": {
        "kilometers": {
            "estimated_diameter_min": 0.0302799377,
            "estimated_diameter_max": 0.0677079989
        },
        "meters": {
            "estimated_diameter_min": 30.2799376529,
            "estimated_diameter_max": 67.7079989464
        },
        "miles": {
            "estimated_diameter_min": 0.0188150751,
            "estimated_diameter_max": 0.042071787
        },
        "feet": {
            "estimated_diameter_min": 99.3436306492,
            "estimated_diameter_max": 222.1391112632
        }
    },
    "is_potentially_hazardous_asteroid": false,
    "close_approach_data": [
        {
            "close_approach_date": "2020-10-01",
            "close_approach_date_full": "2020-Oct-01 18:28",
            "epoch_date_close_approach": 1601576880000,
            "relative_velocity": {
                "kilometers_per_second": "11.6870050734",
                "kilometers_per_hour": "42073.2182642501",
                "miles_per_hour": "26142.6616486947"
            },
            "miss_distance": {
                "astronomical": "0.0790022103",
                "lunar": "30.7318598067",
                "kilometers": "11818562.386172061",
                "miles": "7343714.1342180018"
            },
            "orbiting_body": "Earth"
        },
        {
            "close_approach_date": "2022-04-06",
            "close_approach_date_full": "2022-Apr-06 17:34",
            "epoch_date_close_approach": 1649266440000,
            "relative_velocity": {
                "kilometers_per_second": "12.529195121",
                "kilometers_per_hour": "45105.1024356169",
                "miles_per_hour": "28026.5565661754"
            },
            "miss_distance": {
                "astronomical": "0.1030863702",
                "lunar": "40.1005980078",
                "kilometers": "15421501.407951474",
                "miles": "9582476.6295553812"
            },
            "orbiting_body": "Earth"
        },
        {
            "close_approach_date": "2023-05-02",
            "close_approach_date_full": "2023-May-02 03:59",
            "epoch_date_close_approach": 1682999940000,
            "relative_velocity": {
                "kilometers_per_second": "11.6412001875",
                "kilometers_per_hour": "41908.3206750479",
                "miles_per_hour": "26040.2006994485"
            },
            "miss_distance": {
                "astronomical": "0.1383960468",
                "lunar": "53.8360622052",
                "kilometers": "20703753.817700316",
                "miles": "12864716.0775077208"
            },
            "orbiting_body": "Venus"
        }
    ],
    "orbital_data": {
        "orbit_id": "2",
        "orbit_determination_date": "2020-09-27 06:55:31",
        "first_observation_date": "2020-09-24",
        "last_observation_date": "2020-09-27",
        "data_arc_in_days": 3,
        "observations_used": 29,
        "orbit_uncertainty": "8",
        "minimum_orbit_intersection": ".0732789",
        "jupiter_tisserand_invariant": "5.565",
        "epoch_osculation": "2459117.5",
        "eccentricity": ".3274227868339646",
        "semi_major_axis": "1.103987872540706",
        "inclination": "11.94240398915085",
        "ascending_node_longitude": "172.1835928368396",
        "orbital_period": "423.6867483854305",
        "perihelion_distance": ".7425170866825281",
        "perihelion_argument": "296.2748707249535",
        "aphelion_distance": "1.465458658398883",
        "perihelion_time": "2459194.808851565706",
        "mean_anomaly": "294.3118785996678",
        "mean_motion": ".8496843514031875",
        "equinox": "J2000",
        "orbit_class": {
            "orbit_class_type": "APO",
            "orbit_class_description": "Near-Earth asteroid orbits which cross the Earth’s orbit similar to that of 1862 Apollo",
            "orbit_class_range": "a (semi-major axis) > 1.0 AU; q (perihelion) < 1.017 AU"
        }
    },
    "is_sentry_object": false
}